{
  "norad_id": 65884,
  "name": "STARLINK-35384",
  "history": [
    {
      "epoch": "2026-03-28T19:55:46.940160",
      "apogee_km": 475.7331211987903,
      "perigee_km": 474.728828655745,
      "latitude_deg": -23.95081036497989,
      "longitude_deg": 128.1188223999925,
      "semi_major_axis_km": 6853.367974927268,
      "eccentricity": 7.327e-05,
      "inclination_deg": 53.1579,
      "raan_deg": 282.5309,
      "arg_perigee_deg": 93.8615,
      "mean_anomaly_deg": 266.2469,
      "mean_motion_rev_day": 15.30194673
    }
  ]
}