{"fetched_at":"2026-03-30T06:02:59Z","count":15439,"tles":[{"name":"STARLINK-35384","line1":"1 65884U 25224C   26087.83040440  .00031257  00000+0  10632-2 0  9993","line2":"2 65884  53.1579 282.5309 0000732  93.8615 266.2469 15.30194673 27751","category":"Starlink"}]}